HIMAWARI-8              
1 40267U 14060A   24160.59542694 -.00000276  00000+0  00000+0 0  9991
2 40267   0.0650 129.9865 0000694 320.7661 161.7310  1.00271252 35351
